{
  "links" : {
    "next" : "https://api.nasa.gov/neo/rest/v1/feed?start_date=2004-07-23&end_date=2004-07-23&detailed=true&api_key=t0TVs3DtDT2H8Oy2Zy8m2eVrNsAVKAexjcZXUckd",
    "prev" : "https://api.nasa.gov/neo/rest/v1/feed?start_date=2004-07-21&end_date=2004-07-21&detailed=true&api_key=t0TVs3DtDT2H8Oy2Zy8m2eVrNsAVKAexjcZXUckd",
    "self" : "https://api.nasa.gov/neo/rest/v1/feed?start_date=2004-07-22&end_date=2004-07-22&detailed=true&api_key=t0TVs3DtDT2H8Oy2Zy8m2eVrNsAVKAexjcZXUckd"
  },
  "element_count" : 5,
  "near_earth_objects" : {
    "2004-07-22" : [ {
      "links" : {
        "self" : "https://api.nasa.gov/neo/rest/v1/neo/3337592?api_key=t0TVs3DtDT2H8Oy2Zy8m2eVrNsAVKAexjcZXUckd"
      },
      "neo_reference_id" : "3337592",
      "name" : "(2006 OX4)",
      "nasa_jpl_url" : "http://ssd.jpl.nasa.gov/sbdb.cgi?sstr=3337592",
      "absolute_magnitude_h" : 21.1,
      "estimated_diameter" : {
        "kilometers" : {
          "estimated_diameter_min" : 0.160160338,
          "estimated_diameter_max" : 0.358129403
        },
        "meters" : {
          "estimated_diameter_min" : 160.1603379786,
          "estimated_diameter_max" : 358.1294030194
        },
        "miles" : {
          "estimated_diameter_min" : 0.0995189894,
          "estimated_diameter_max" : 0.2225312253
        },
        "feet" : {
          "estimated_diameter_min" : 525.4604432536,
          "estimated_diameter_max" : 1174.9652706022
        }
      },
      "is_potentially_hazardous_asteroid" : false,
      "close_approach_data" : [ {
        "close_approach_date" : "2004-07-22",
        "epoch_date_close_approach" : 1090479600000,
        "relative_velocity" : {
          "kilometers_per_second" : "10.0865496422",
          "kilometers_per_hour" : "36311.5787117605",
          "miles_per_hour" : "22562.6028945381"
        },
        "miss_distance" : {
          "astronomical" : "0.3154566795",
          "lunar" : "122.7126541138",
          "kilometers" : "47191648",
          "miles" : "29323532"
        },
        "orbiting_body" : "Earth"
      } ],
      "orbital_data" : {
        "orbit_id" : "12",
        "orbit_determination_date" : "2017-04-06 09:08:24",
        "orbit_uncertainty" : "6",
        "minimum_orbit_intersection" : ".173675",
        "jupiter_tisserand_invariant" : "4.258",
        "epoch_osculation" : "2458000.5",
        "eccentricity" : ".2641338754696821",
        "semi_major_axis" : "1.605034981598927",
        "inclination" : "18.52889122316511",
        "ascending_node_longitude" : "300.37794946",
        "orbital_period" : "742.7201051352607",
        "perihelion_distance" : "1.181090871644793",
        "perihelion_argument" : "342.3408986484079",
        "aphelion_distance" : "2.028979091553061",
        "perihelion_time" : "2457629.391909944495",
        "mean_anomaly" : "179.877872560958",
        "mean_motion" : ".4847047999790425",
        "equinox" : "J2000"
      }
    }, {
      "links" : {
        "self" : "https://api.nasa.gov/neo/rest/v1/neo/3756040?api_key=t0TVs3DtDT2H8Oy2Zy8m2eVrNsAVKAexjcZXUckd"
      },
      "neo_reference_id" : "3756040",
      "name" : "(2016 NY55)",
      "nasa_jpl_url" : "http://ssd.jpl.nasa.gov/sbdb.cgi?sstr=3756040",
      "absolute_magnitude_h" : 22.8,
      "estimated_diameter" : {
        "kilometers" : {
          "estimated_diameter_min" : 0.0732073989,
          "estimated_diameter_max" : 0.1636967205
        },
        "meters" : {
          "estimated_diameter_min" : 73.2073989347,
          "estimated_diameter_max" : 163.696720474
        },
        "miles" : {
          "estimated_diameter_min" : 0.0454889547,
          "estimated_diameter_max" : 0.1017163949
        },
        "feet" : {
          "estimated_diameter_min" : 240.181762721,
          "estimated_diameter_max" : 537.0627483999
        }
      },
      "is_potentially_hazardous_asteroid" : false,
      "close_approach_data" : [ {
        "close_approach_date" : "2004-07-22",
        "epoch_date_close_approach" : 1090479600000,
        "relative_velocity" : {
          "kilometers_per_second" : "24.0274354878",
          "kilometers_per_hour" : "86498.7677561524",
          "miles_per_hour" : "53746.9704427048"
        },
        "miss_distance" : {
          "astronomical" : "0.475359365",
          "lunar" : "184.9147949219",
          "kilometers" : "71112744",
          "miles" : "44187412"
        },
        "orbiting_body" : "Earth"
      } ],
      "orbital_data" : {
        "orbit_id" : "5",
        "orbit_determination_date" : "2017-04-06 08:24:53",
        "orbit_uncertainty" : "7",
        "minimum_orbit_intersection" : ".0337276",
        "jupiter_tisserand_invariant" : "4.870",
        "epoch_osculation" : "2458000.5",
        "eccentricity" : ".3843370187190933",
        "semi_major_axis" : "1.314360627623068",
        "inclination" : "10.82145180670699",
        "ascending_node_longitude" : "277.5465538864117",
        "orbital_period" : "550.3896247286793",
        "perihelion_distance" : ".8092031824806618",
        "perihelion_argument" : "123.9208686159453",
        "aphelion_distance" : "1.819518072765475",
        "perihelion_time" : "2458220.983943548131",
        "mean_anomaly" : "215.7853998129862",
        "mean_motion" : ".6540820971642879",
        "equinox" : "J2000"
      }
    } ]
  }
}